NORAD_CAT_ID,OBJECT_NAME,OBJECT_TYPE,EPOCH,MEAN_MOTION,ECCENTRICITY,INCLINATION,RA_OF_ASC_NODE,ARG_OF_PERICENTER,MEAN_ANOMALY,BSTAR,MEAN_MOTION_DOT,MEAN_MOTION_DDOT,TLE_LINE0,TLE_LINE1,TLE_LINE2,SEMIMAJOR_AXIS,PERIOD,APOGEE,PERIGEE,DECAYED
52850.0,STARLINK-4187,PAYLOAD,2023-12-11 15:01:59,15.08850954,0.0001407,53.2168,111.3976,73.8303,286.2844,-2.2165e-06,-3.23e-06,0.0,0 STARLINK-4187,1 52850U 22062W   23345.62638512 -.00000323  00000-0 -22165-5 0  9993,2 52850  53.2168 111.3976 0001407  73.8303 286.2844 15.08850954 82134,6917.847,95.437,540.685,538.739,0.0
52850.0,STARLINK-4187,PAYLOAD,2023-12-12 13:17:23,15.08845081,0.0001408,53.2176,107.2351,96.1842,263.931,2.2789e-05,7.5e-07,0.0,0 STARLINK-4187,1 52850U 22062W   23346.55374150  .00000075  00000-0  22789-4 0  9994,2 52850  53.2176 107.2351 0001408  96.1842 263.9310 15.08845081 82271,6917.865,95.437,540.704,538.756,0.0
52850.0,STARLINK-4187,PAYLOAD,2023-12-13 11:32:47,15.08842084,0.000134,53.218,103.074,95.389,264.7256,7.4237e-05,8.94e-06,0.0,0 STARLINK-4187,1 52850U 22062W   23347.48109965  .00000894  00000-0  74237-4 0  9991,2 52850  53.2180 103.0740 0001340  95.3890 264.7256 15.08842084 82909,6917.874,95.437,540.666,538.812,0.0
52850.0,STARLINK-4187,PAYLOAD,2023-12-13 14:43:33,15.0884486,0.0001264,53.217,102.4751,82.88,277.2336,8.9413e-05,1.136e-05,0.0,0 STARLINK-4187,1 52850U 22062W   23347.61357727  .00001136  00000-0  89413-4 0  9999,2 52850  53.2170 102.4751 0001264  82.8800 277.2336 15.08844860 82430,6917.866,95.437,540.605,538.856,0.0
52850.0,STARLINK-4187,PAYLOAD,2023-12-14 14:34:20,15.08844115,0.0001318,53.2173,98.0125,92.4903,267.624,7.922e-05,9.73e-06,0.0,0 STARLINK-4187,1 52850U 22062W   23348.60717741  .00000973  00000-0  79220-4 0  9998,2 52850  53.2173  98.0125 0001318  92.4903 267.6240 15.08844115 82585,6917.868,95.437,540.645,538.821,0.0
52850.0,STARLINK-4187,PAYLOAD,2023-12-15 11:14:21,15.08834967,0.0001395,53.2178,94.1463,91.5247,268.5905,-5.7849e-07,-2.97e-06,0.0,0 STARLINK-4187,1 52850U 22062W   23349.46830710 -.00000297  00000-0 -57849-6 0  9991,2 52850  53.2178  94.1463 0001395  91.5247 268.5905 15.08834967 83200,6917.896,95.438,540.726,538.796,0.0
52850.0,STARLINK-4187,PAYLOAD,2023-12-15 12:49:44,15.08835878,0.0001339,53.218,93.8489,91.8127,268.3018,-3.5391e-05,-8.51e-06,0.0,0 STARLINK-4187,1 52850U 22062W   23349.53454728 -.00000851  00000-0 -35391-4 0  9992,2 52850  53.2180  93.8489 0001339  91.8127 268.3018 15.08835878 82726,6917.893,95.438,540.684,538.832,0.0
52850.0,STARLINK-4187,PAYLOAD,2023-12-16 11:05:08,15.08845695,0.0001349,53.2174,89.688,84.47,275.6446,7.5904e-05,9.2e-06,0.0,0 STARLINK-4187,1 52850U 22062W   23350.46190205  .00000920  00000-0  75904-4 0  9992,2 52850  53.2174  89.6880 0001349  84.4700 275.6446 15.08845695 83357,6917.863,95.437,540.661,538.795,0.0
52850.0,STARLINK-4187,PAYLOAD,2023-12-16 14:15:54,15.08849534,0.0001351,53.2174,89.0932,84.8502,275.2644,0.00010749,1.424e-05,0.0,0 STARLINK-4187,1 52850U 22062W   23350.59437938  .00001424  00000-0  10749-3 0  9998,2 52850  53.2174  89.0932 0001351  84.8502 275.2644 15.08849534 82885,6917.851,95.437,540.651,538.782,0.0
52850.0,STARLINK-4187,PAYLOAD,2023-12-17 12:31:19,15.08831223,0.0001794,53.2182,84.936,58.6146,301.5022,0.00013564,1.871e-05,0.0,0 STARLINK-4187,1 52850U 22062W   23351.52175468  .00001871  00000-0  13564-3 0  9993,2 52850  53.2182  84.9360 0001794  58.6146 301.5022 15.08831223 83517,6917.907,95.438,541.013,538.531,0.0
52850.0,STARLINK-4187,PAYLOAD,2023-12-17 14:06:42,15.08837631,0.0001734,53.2195,84.6336,64.5062,295.6109,0.00015504,2.18e-05,0.0,0 STARLINK-4187,1 52850U 22062W   23351.58799042  .00002180  00000-0  15504-3 0  9999,2 52850  53.2195  84.6336 0001734  64.5062 295.6109 15.08837631 83033,6917.888,95.438,540.952,538.553,0.0
52850.0,STARLINK-4187,PAYLOAD,2023-12-18 12:22:05,15.08852819,0.0001673,53.2187,80.4739,73.4703,286.6473,0.00020842,3.032e-05,0.0,0 STARLINK-4187,1 52850U 22062W   23352.51534164  .00003032  00000-0  20842-3 0  9993,2 52850  53.2187  80.4739 0001673  73.4703 286.6473 15.08852819 83666,6917.841,95.437,540.864,538.549,0.0
52850.0,STARLINK-4187,PAYLOAD,2023-12-19 10:37:29,15.08847715,0.0001311,53.2175,76.3114,96.4865,263.6276,8.9119e-05,1.131e-05,0.0,0 STARLINK-4187,1 52850U 22062W   23353.44270070  .00001131  00000-0  89119-4 0  9990,2 52850  53.2175  76.3114 0001311  96.4865 263.6276 15.08847715 83808,6917.857,95.437,540.629,538.815,0.0
52850.0,STARLINK-4187,PAYLOAD,2023-12-19 12:12:52,15.08847541,0.0001389,53.2175,76.0153,106.1594,253.9551,8.77e-05,1.108e-05,0.0,0 STARLINK-4187,1 52850U 22062W   23353.50894031  .00001108  00000-0  87700-4 0  9994,2 52850  53.2175  76.0153 0001389 106.1594 253.9551 15.08847541 83323,6917.857,95.437,540.683,538.761,0.0
52850.0,STARLINK-4187,PAYLOAD,2023-12-20 10:28:17,15.08834282,0.0001358,53.2178,71.848,91.5266,268.5882,-0.00014239,-2.553e-05,0.0,0 STARLINK-4187,1 52850U 22062W   23354.43630973 -.00002553  00000-0 -14239-3 0  9993,2 52850  53.2178  71.8480 0001358  91.5266 268.5882 15.08834282 83957,6917.898,95.438,540.702,538.823,0.0
52850.0,STARLINK-4187,PAYLOAD,2023-12-21 11:54:27,15.08852713,0.000131,53.2177,67.091,92.0789,268.0353,0.00047806,7.331e-05,0.0,0 STARLINK-4187,1 52850U 22062W   23355.49614743  .00007331  00000-0  47806-3 0  9990,2 52850  53.2177  67.0910 0001310  92.0789 268.0353 15.08852713 84111,6917.842,95.437,540.613,538.8,0.0
52850.0,STARLINK-4187,PAYLOAD,2023-12-22 11:45:14,15.08843658,0.0001554,53.2183,62.6314,112.3478,247.7679,0.00016572,2.351e-05,0.0,0 STARLINK-4187,1 52850U 22062W   23356.48975119  .00002351  00000-0  16572-3 0  9990,2 52850  53.2183  62.6314 0001554 112.3478 247.7679 15.08843658 84267,6917.869,95.437,540.809,538.659,0.0
52850.0,STARLINK-4187,PAYLOAD,2023-12-23 11:36:01,15.0884606,0.0001509,53.2187,58.1682,83.9726,276.1438,-9.3456e-06,-4.37e-06,0.0,0 STARLINK-4187,1 52850U 22062W   23357.48335170 -.00000437  00000-0 -93456-5 0  9991,2 52850  53.2187  58.1682 0001509  83.9726 276.1438 15.08846060 84414,6917.862,95.437,540.771,538.683,0.0
52850.0,STARLINK-4187,PAYLOAD,2023-12-23 13:11:24,15.08846902,0.0001544,53.2188,57.8713,92.7031,267.4138,3.771e-05,3.12e-06,0.0,0 STARLINK-4187,1 52850U 22062W   23357.54959113  .00000312  00000-0  37710-4 0  9997,2 52850  53.2188  57.8713 0001544  92.7031 267.4138 15.08846902 83933,6917.859,95.437,540.792,538.656,0.0
52850.0,STARLINK-4187,PAYLOAD,2023-12-23 14:46:47,15.08846433,0.0001556,53.2187,57.5688,85.4119,274.7051,8.3994e-05,1.049e-05,0.0,0 STARLINK-4187,1 52850U 22062W   23357.61583120  .00001049  00000-0  83994-4 0  9999,2 52850  53.2187  57.5688 0001556  85.4119 274.7051 15.08846433 83944,6917.861,95.437,540.802,538.649,0.0
52850.0,STARLINK-4187,PAYLOAD,2023-12-23 22:43:43,15.0883548,0.0001402,53.2176,56.0783,134.8718,225.2388,2.9248e-05,1.78e-06,0.0,0 STARLINK-4187,1 52850U 22062W   23357.94703431  .00000178  00000-0  29248-4 0  9998,2 52850  53.2176  56.0783 0001402 134.8718 225.2388 15.08835480 84480,6917.894,95.438,540.729,538.789,0.0
52850.0,STARLINK-4187,PAYLOAD,2023-12-24 11:26:48,15.08846266,0.0001828,53.218,53.7067,117.7136,242.4042,8.9e-05,1.129e-05,0.0,0 STARLINK-4187,1 52850U 22062W   23358.47695002  .00001129  00000-0  89000-4 0  9990,2 52850  53.2180  53.7067 0001828 117.7136 242.4042 15.08846266 84561,6917.861,95.437,540.991,538.462,0.0
52850.0,STARLINK-4187,PAYLOAD,2023-12-24 13:02:11,15.08854147,0.0001376,53.217,53.4081,96.9079,263.2069,0.00022027,3.221e-05,0.0,0 STARLINK-4187,1 52850U 22062W   23358.54318670  .00003221  00000-0  22027-3 0  9991,2 52850  53.2170  53.4081 0001376  96.9079 263.2069 15.08854147 84089,6917.837,95.437,540.654,538.75,0.0
52850.0,STARLINK-4187,PAYLOAD,2023-12-25 03:20:40,15.08832779,5.7e-05,53.2177,50.7311,96.1987,263.907,-7.9074e-05,-1.545e-05,0.0,0 STARLINK-4187,1 52850U 22062W   23359.13935762 -.00001545  00000-0 -79074-4 0  9998,2 52850  53.2177  50.7311 0000570  96.1987 263.9070 15.08832779 84667,6917.902,95.438,540.162,539.373,0.0
52850.0,STARLINK-4187,PAYLOAD,2023-12-25 11:17:35,15.08845722,0.0001649,53.2167,49.2517,78.2497,281.868,0.00016342,2.314e-05,0.0,0 STARLINK-4187,1 52850U 22062W   23359.47055414  .00002314  00000-0  16342-3 0  9993,2 52850  53.2167  49.2517 0001649  78.2497 281.8680 15.08845722 84716,6917.863,95.437,540.869,538.587,0.0
52850.0,STARLINK-4187,PAYLOAD,2023-12-26 03:11:27,15.08834831,0.0001638,53.2182,46.2777,93.0467,267.0713,3.351e-05,2.45e-06,0.0,0 STARLINK-4187,1 52850U 22062W   23360.13295929  .00000245  00000-0  33510-4 0  9993,2 52850  53.2182  46.2777 0001638  93.0467 267.0713 15.08834831 84811,6917.896,95.438,540.894,538.628,0.0
52850.0,STARLINK-4187,PAYLOAD,2023-12-26 09:33:00,15.08832529,0.0001817,53.2174,45.0887,70.7976,289.3213,-3.0877e-05,-7.79e-06,0.0,0 STARLINK-4187,1 52850U 22062W   23360.39792362 -.00000779  00000-0 -30877-4 0  9991,2 52850  53.2174  45.0887 0001817  70.7976 289.3213 15.08832529 84361,6917.903,95.438,541.025,538.511,0.0
52850.0,STARLINK-4187,PAYLOAD,2023-12-27 09:23:47,15.088454,0.0001675,53.2176,40.6268,93.2468,266.8716,0.00021525,3.14e-05,0.0,0 STARLINK-4187,1 52850U 22062W   23361.39151787  .00003140  00000-0  21525-3 0  9994,2 52850  53.2176  40.6268 0001675  93.2468 266.8716 15.08845400 85007,6917.864,95.437,540.888,538.57,0.0
52850.0,STARLINK-4187,PAYLOAD,2023-12-27 12:34:32,15.08854062,0.0001561,53.2174,40.03,95.4949,264.6221,0.00024436,3.605e-05,0.0,0 STARLINK-4187,1 52850U 22062W   23361.52399265  .00003605  00000-0  24436-3 0  9994,2 52850  53.2174  40.0300 0001561  95.4949 264.6221 15.08854062 84536,6917.837,95.437,540.782,538.623,0.0
52850.0,STARLINK-4187,PAYLOAD,2023-12-28 02:53:01,15.08835016,0.0001218,53.2176,37.3462,113.986,246.1259,0.00024623,3.633e-05,0.0,0 STARLINK-4187,1 52850U 22062W   23362.12016172  .00003633  00000-0  24623-3 0  9993,2 52850  53.2176  37.3462 0001218 113.9860 246.1259 15.08835016 85112,6917.896,95.438,540.603,538.918,0.0
